{"type":"FeatureCollection","features":[{"type":"Feature","properties":{"kode":"1117","nama":"Bener Meriah"},"geometry":{"type":"Polygon","coordinates":[[[96.57314,4.94768],[96.67406,4.95091],[96.70675,4.82393],[96.68362,4.75569],[96.74677,4.71259],[96.78741,4.71277],[96.80456,4.67636],[96.9198,4.65389],[97.0207,4.64389],[97.0393,4.61143],[97.10219,4.58623],[97.16962,4.57814],[97.23354,4.60431],[97.31249,4.60462],[97.25633,4.65001],[97.30579,4.66583],[97.3271,4.70306],[97.31861,4.73715],[97.25216,4.75803],[97.28018,4.8264],[97.24267,4.87353],[97.13124,4.9121],[97.01298,4.9075],[97.00104,4.86468],[96.95535,4.85882],[96.84619,4.88213],[96.78651,4.94001],[96.75298,4.96392],[96.62959,4.96866],[96.57314,4.94768]]]}},{"type":"Feature","properties":{"kode":"1106","nama":"Aceh Besar"},"geometry":{"type":"MultiPolygon","coordinates":[[[[95.743,5.0606],[95.82073,5.08547],[95.83992,5.14149],[95.78897,5.21751],[95.79106,5.2807],[95.74899,5.31693],[95.76098,5.36856],[95.75314,5.41613],[95.78032,5.44068],[95.72891,5.49198],[95.74467,5.56939],[95.6876,5.58412],[95.61071,5.62778],[95.49603,5.60484],[95.46451,5.64478],[95.43229,5.65661],[95.37655,5.61129],[95.35032,5.59467],[95.36079,5.54807],[95.32029,5.51658],[95.27299,5.54939],[95.21434,5.56412],[95.19354,5.52701],[95.2435,5.45965],[95.25306,5.38225],[95.23312,5.28454],[95.26889,5.19919],[95.30709,5.16802],[95.32475,5.22333],[95.3674,5.25429],[95.42092,5.22503],[95.48619,5.21187],[95.58777,5.2086],[95.64359,5.14454],[95.6301,5.09168],[95.64825,5.06715],[95.70479,5.05224],[95.743,5.0606]]],[[[95.07195,5.66638],[95.11025,5.66715],[95.10869,5.7089],[95.05222,5.72086],[95.07195,5.66638]]]]}},{"type":"Feature","properties":{"kode":"1101","nama":"Aceh Selatan"},"geometry":{"type":"Polygon","coordinates":[[[97.66504,2.39486],[97.71,2.40909],[97.75,2.44251],[97.7912,2.50019],[97.79706,2.55392],[97.82521,2.63693],[97.76653,2.78807],[97.84686,2.83262],[97.85938,2.8829],[97.90572,2.91178],[97.9071,2.95508],[97.81479,2.98304],[97.77036,2.95875],[97.75511,2.92734],[97.64244,2.95202],[97.64222,3.03257],[97.61017,3.10122],[97.51685,3.17049],[97.47736,3.21697],[97.46406,3.26787],[97.47588,3.31833],[97.44035,3.39607],[97.3984,3.45132],[97.45094,3.53585],[97.48221,3.54116],[97.46229,3.61964],[97.41636,3.61898],[97.37329,3.63891],[97.29497,3.59524],[97.28455,3.6413],[97.20649,3.69129],[97.15447,3.7415],[97.13109,3.68432],[97.02814,3.60025],[96.96353,3.61348],[96.94249,3.57394],[97.00275,3.5461],[97.0732,3.41604],[97.16942,3.25764],[97.19201,3.26078],[97.25458,3.22515],[97.27758,3.18118],[97.31598,3.05507],[97.41853,2.93987],[97.48532,2.92119],[97.54054,2.88423],[97.59185,2.88071],[97.61458,2.83339],[97.65141,2.66259],[97.66504,2.39486]]]}},{"type":"Feature","properties":{"kode":"1111","nama":"Bireuen"},"geometry":{"type":"Polygon","coordinates":[[[96.57314,4.94768],[96.62959,4.96866],[96.75298,4.96392],[96.78651,4.94001],[96.81302,4.97574],[96.83359,5.08884],[96.87568,5.11723],[96.89025,5.17492],[96.91764,5.20072],[96.90752,5.25111],[96.8274,5.2748],[96.72,5.2453],[96.62363,5.21094],[96.53202,5.19841],[96.48902,5.20677],[96.46264,5.23651],[96.39297,5.20967],[96.34327,5.22649],[96.33554,5.14759],[96.36365,5.03401],[96.32654,4.9659],[96.34649,4.94388],[96.37926,4.93037],[96.42473,4.94044],[96.46989,4.89414],[96.51115,4.90081],[96.57314,4.94768]]]}},{"type":"Feature","properties":{"kode":"1174","nama":"Kota Langsa"},"geometry":{"type":"Polygon","coordinates":[[[98.00227,4.40522],[98.03879,4.42018],[98.04683,4.46548],[98.07622,4.5127],[98.0696,4.5472],[97.98584,4.534],[97.97467,4.55659],[97.96829,4.53183],[97.91679,4.5314],[97.86819,4.47252],[98.00227,4.40522]]]}},{"type":"Feature","properties":{"kode":"1116","nama":"Aceh Tamiang"},"geometry":{"type":"Polygon","coordinates":[[[97.90046,3.91064],[97.95299,3.88991],[98.00652,3.90169],[98.02026,3.95583],[98.08265,3.9539],[98.09573,3.98407],[98.04024,4.04116],[98.06252,4.18585],[98.09162,4.19405],[98.07202,4.2504],[98.14377,4.25977],[98.15474,4.28913],[98.20953,4.29898],[98.25302,4.28992],[98.28184,4.34949],[98.27667,4.38946],[98.23418,4.46358],[98.12332,4.52184],[98.07622,4.5127],[98.04683,4.46548],[98.03879,4.42018],[98.00227,4.40522],[97.93085,4.36044],[97.90743,4.39027],[97.85651,4.3868],[97.78492,4.3565],[97.7329,4.24923],[97.72825,4.20145],[97.75236,4.12143],[97.79979,4.09325],[97.81371,4.00534],[97.84293,3.9896],[97.87554,3.92942],[97.90046,3.91064]]]}},{"type":"Feature","properties":{"kode":"1102","nama":"Aceh Tenggara"},"geometry":{"type":"Polygon","coordinates":[[[97.93619,2.9895],[97.93011,3.05477],[97.98381,3.08614],[97.98218,3.11607],[97.9421,3.16479],[97.91116,3.25184],[97.96901,3.27371],[98.02925,3.33075],[97.99718,3.37267],[97.94871,3.39002],[97.93018,3.49248],[97.90663,3.55523],[97.86813,3.57112],[97.85285,3.62932],[97.8005,3.72256],[97.82491,3.75057],[97.7039,3.73546],[97.29346,3.67323],[97.25082,3.69231],[97.20649,3.69129],[97.28455,3.6413],[97.29497,3.59524],[97.37329,3.63891],[97.41636,3.61898],[97.46229,3.61964],[97.48221,3.54116],[97.45094,3.53585],[97.3984,3.45132],[97.44035,3.39607],[97.47588,3.31833],[97.46406,3.26787],[97.47736,3.21697],[97.51685,3.17049],[97.61017,3.10122],[97.64222,3.03257],[97.64244,2.95202],[97.75511,2.92734],[97.77036,2.95875],[97.81479,2.98304],[97.82807,2.99947],[97.89517,3.00869],[97.93619,2.9895]]]}},{"type":"Feature","properties":{"kode":"1114","nama":"Aceh Jaya"},"geometry":{"type":"Polygon","coordinates":[[[95.87631,4.36978],[95.9259,4.44241],[95.95056,4.49887],[96.04197,4.58862],[96.02599,4.61394],[96.04277,4.6599],[96.00021,4.7495],[95.99212,4.78603],[95.95413,4.83263],[95.90132,4.86811],[95.88203,4.91486],[95.79779,4.99239],[95.743,5.0606],[95.70479,5.05224],[95.64825,5.06715],[95.6301,5.09168],[95.64359,5.14454],[95.58777,5.2086],[95.48619,5.21187],[95.42092,5.22503],[95.3674,5.25429],[95.32475,5.22333],[95.30709,5.16802],[95.30312,5.11218],[95.33272,5.05106],[95.36728,5.03256],[95.38145,4.96272],[95.37147,4.93868],[95.40143,4.89275],[95.43188,4.80816],[95.49269,4.75104],[95.54041,4.65648],[95.58156,4.64009],[95.75438,4.49313],[95.87631,4.36978]]]}},{"type":"Feature","properties":{"kode":"1113","nama":"Gayo Lues"},"geometry":{"type":"Polygon","coordinates":[[[97.20649,3.69129],[97.25082,3.69231],[97.29346,3.67323],[97.7039,3.73546],[97.82491,3.75057],[97.89638,3.80838],[97.92192,3.84591],[97.90046,3.91064],[97.87554,3.92942],[97.84293,3.9896],[97.81371,4.00534],[97.79979,4.09325],[97.75236,4.12143],[97.72825,4.20145],[97.7329,4.24923],[97.6879,4.2471],[97.65578,4.2233],[97.59439,4.24341],[97.56249,4.1981],[97.51632,4.18193],[97.49882,4.15569],[97.41413,4.17918],[97.35888,4.21426],[97.25388,4.17401],[97.22345,4.22358],[97.16166,4.27739],[97.11321,4.23887],[97.00876,4.19883],[96.92998,4.19965],[96.88755,4.22112],[96.83658,4.2816],[96.79366,4.2804],[96.79154,4.19989],[96.74958,4.16105],[96.72381,4.09404],[96.79241,4.04917],[96.80993,3.98018],[96.83827,3.95443],[96.99405,3.93816],[97.04614,3.95838],[97.10095,3.94525],[97.11927,3.91895],[97.11159,3.83287],[97.15447,3.7415],[97.20649,3.69129]]]}},{"type":"Feature","properties":{"kode":"1118","nama":"Pidie Jaya"},"geometry":{"type":"Polygon","coordinates":[[[96.34649,4.94388],[96.32654,4.9659],[96.36365,5.03401],[96.33554,5.14759],[96.34327,5.22649],[96.26071,5.2642],[96.19044,5.25954],[96.10524,5.28434],[96.05786,5.29081],[96.0367,5.23703],[96.05357,5.20201],[96.02026,5.14589],[96.05764,5.10851],[96.13872,5.07448],[96.18364,5.06828],[96.20672,5.04013],[96.18997,5.00023],[96.21157,4.95918],[96.27667,4.90973],[96.32539,4.91724],[96.34649,4.94388]]]}},{"type":"Feature","properties":{"kode":"1112","nama":"Aceh Barat Daya"},"geometry":{"type":"Polygon","coordinates":[[[96.62,3.73705],[96.67288,3.74636],[96.77579,3.73835],[96.85186,3.70212],[96.87956,3.67733],[96.90323,3.60217],[96.94249,3.57394],[96.96353,3.61348],[97.02814,3.60025],[97.13109,3.68432],[97.15447,3.7415],[97.11159,3.83287],[97.11927,3.91895],[97.10095,3.94525],[97.04614,3.95838],[96.99405,3.93816],[96.83827,3.95443],[96.80993,3.98018],[96.79241,4.04917],[96.72381,4.09404],[96.72724,4.03768],[96.70633,3.99475],[96.63091,3.96209],[96.59633,3.88704],[96.58608,3.83713],[96.61306,3.80968],[96.62,3.73705]]]}},{"type":"Feature","properties":{"kode":"1110","nama":"Aceh Singkil"},"geometry":{"type":"MultiPolygon","coordinates":[[[[97.11363,2.11461],[97.07646,2.07684],[97.0983,2.03199],[97.15291,2.05595],[97.15096,2.09126],[97.11363,2.11461]]],[[[97.17076,2.23463],[97.17381,2.17867],[97.26033,2.1362],[97.30689,2.06332],[97.34119,2.05537],[97.35596,2.10306],[97.34073,2.15444],[97.30424,2.18236],[97.30118,2.21414],[97.23578,2.23541],[97.22003,2.2045],[97.17076,2.23463]]],[[[98.12731,2.16952],[98.18403,2.26277],[98.19714,2.31155],[98.14703,2.42403],[98.09777,2.4798],[98.0766,2.57479],[97.99438,2.58198],[97.85503,2.56456],[97.86497,2.49881],[97.7912,2.50019],[97.75,2.44251],[97.71,2.40909],[97.66504,2.39486],[97.73561,2.31318],[97.78604,2.2314],[97.80013,2.27058],[97.86997,2.24566],[97.91344,2.27175],[97.95219,2.26979],[98.10905,2.18823],[98.12731,2.16952]]]]}},{"type":"Feature","properties":{"kode":"1104","nama":"Aceh Tengah"},"geometry":{"type":"Polygon","coordinates":[[[97.35888,4.21426],[97.35935,4.34947],[97.36854,4.3703],[97.34554,4.4438],[97.34291,4.49986],[97.27946,4.51251],[97.31721,4.54908],[97.31249,4.60462],[97.23354,4.60431],[97.16962,4.57814],[97.10219,4.58623],[97.0393,4.61143],[97.0207,4.64389],[96.9198,4.65389],[96.80456,4.67636],[96.78741,4.71277],[96.74677,4.71259],[96.68362,4.75569],[96.70675,4.82393],[96.67406,4.95091],[96.57314,4.94768],[96.51115,4.90081],[96.46989,4.89414],[96.47571,4.77486],[96.39884,4.75999],[96.28208,4.7798],[96.26028,4.71238],[96.27051,4.69766],[96.36202,4.67002],[96.40625,4.66995],[96.45137,4.62217],[96.49007,4.62476],[96.50305,4.63219],[96.57177,4.57787],[96.6541,4.54752],[96.68258,4.4829],[96.63418,4.40345],[96.71477,4.33105],[96.79366,4.2804],[96.83658,4.2816],[96.88755,4.22112],[96.92998,4.19965],[97.00876,4.19883],[97.11321,4.23887],[97.16166,4.27739],[97.22345,4.22358],[97.25388,4.17401],[97.35888,4.21426]]]}},{"type":"Feature","properties":{"kode":"1175","nama":"Kota Subulussalam"},"geometry":{"type":"Polygon","coordinates":[[[98.0766,2.57479],[98.10771,2.60444],[98.10402,2.68193],[98.06937,2.76417],[98.11674,2.78511],[98.09839,2.82282],[98.05008,2.82185],[97.99305,2.88184],[97.94928,2.89481],[97.95495,2.98276],[97.93619,2.9895],[97.89517,3.00869],[97.82807,2.99947],[97.81479,2.98304],[97.9071,2.95508],[97.90572,2.91178],[97.85938,2.8829],[97.84686,2.83262],[97.76653,2.78807],[97.82521,2.63693],[97.79706,2.55392],[97.7912,2.50019],[97.86497,2.49881],[97.85503,2.56456],[97.99438,2.58198],[98.0766,2.57479]]]}},{"type":"Feature","properties":{"kode":"1173","nama":"Kota Lhokseumawe"},"geometry":{"type":"Polygon","coordinates":[[[97.04587,5.24179],[97.03688,5.21332],[97.13064,5.0909],[97.17774,5.08365],[97.17625,5.14212],[97.14185,5.19994],[97.04587,5.24179]]]}},{"type":"Feature","properties":{"kode":"1115","nama":"Nagan Raya"},"geometry":{"type":"Polygon","coordinates":[[[96.62,3.73705],[96.61306,3.80968],[96.58608,3.83713],[96.59633,3.88704],[96.63091,3.96209],[96.70633,3.99475],[96.72724,4.03768],[96.72381,4.09404],[96.74958,4.16105],[96.79154,4.19989],[96.79366,4.2804],[96.71477,4.33105],[96.63418,4.40345],[96.68258,4.4829],[96.6541,4.54752],[96.57177,4.57787],[96.50305,4.63219],[96.49007,4.62476],[96.49223,4.54772],[96.48221,4.4611],[96.43766,4.42505],[96.37209,4.41792],[96.32018,4.36766],[96.31066,4.337],[96.25883,4.2739],[96.25494,4.23832],[96.27911,4.18402],[96.26795,4.14392],[96.18968,4.10693],[96.29721,3.98074],[96.37417,3.86659],[96.44797,3.79059],[96.53428,3.73145],[96.62,3.73705]]]}},{"type":"Feature","properties":{"kode":"1107","nama":"Pidie"},"geometry":{"type":"Polygon","coordinates":[[[96.26028,4.71238],[96.28208,4.7798],[96.39884,4.75999],[96.47571,4.77486],[96.46989,4.89414],[96.42473,4.94044],[96.37926,4.93037],[96.34649,4.94388],[96.32539,4.91724],[96.27667,4.90973],[96.21157,4.95918],[96.18997,5.00023],[96.20672,5.04013],[96.18364,5.06828],[96.13872,5.07448],[96.05764,5.10851],[96.02026,5.14589],[96.05357,5.20201],[96.0367,5.23703],[96.05786,5.29081],[96.10524,5.28434],[95.91558,5.42734],[95.89042,5.46334],[95.88839,5.50233],[95.74467,5.56939],[95.72891,5.49198],[95.78032,5.44068],[95.75314,5.41613],[95.76098,5.36856],[95.74899,5.31693],[95.79106,5.2807],[95.78897,5.21751],[95.83992,5.14149],[95.82073,5.08547],[95.743,5.0606],[95.79779,4.99239],[95.88203,4.91486],[95.90132,4.86811],[95.95413,4.83263],[95.99212,4.78603],[96.00021,4.7495],[96.10678,4.74969],[96.11103,4.69006],[96.15856,4.71068],[96.16761,4.75009],[96.26028,4.71238]]]}},{"type":"Feature","properties":{"kode":"1105","nama":"Aceh Barat"},"geometry":{"type":"Polygon","coordinates":[[[95.87631,4.36978],[96.0214,4.20907],[96.06133,4.20283],[96.12205,4.14062],[96.18968,4.10693],[96.26795,4.14392],[96.27911,4.18402],[96.25494,4.23832],[96.25883,4.2739],[96.31066,4.337],[96.32018,4.36766],[96.37209,4.41792],[96.43766,4.42505],[96.48221,4.4611],[96.49223,4.54772],[96.49007,4.62476],[96.45137,4.62217],[96.40625,4.66995],[96.36202,4.67002],[96.27051,4.69766],[96.26028,4.71238],[96.16761,4.75009],[96.15856,4.71068],[96.11103,4.69006],[96.10678,4.74969],[96.00021,4.7495],[96.04277,4.6599],[96.02599,4.61394],[96.04197,4.58862],[95.95056,4.49887],[95.9259,4.44241],[95.87631,4.36978]]]}},{"type":"Feature","properties":{"kode":"1108","nama":"Aceh Utara"},"geometry":{"type":"Polygon","coordinates":[[[97.31861,4.73715],[97.33746,4.77839],[97.39981,4.76868],[97.43398,4.78675],[97.4379,4.82209],[97.47702,4.83934],[97.51416,5.03302],[97.5085,5.06896],[97.45959,5.11226],[97.50091,5.19],[97.48358,5.24312],[97.20268,5.14263],[97.17625,5.14212],[97.17774,5.08365],[97.13064,5.0909],[97.03688,5.21332],[97.04587,5.24179],[96.97625,5.26265],[96.90752,5.25111],[96.91764,5.20072],[96.89025,5.17492],[96.87568,5.11723],[96.83359,5.08884],[96.81302,4.97574],[96.78651,4.94001],[96.84619,4.88213],[96.95535,4.85882],[97.00104,4.86468],[97.01298,4.9075],[97.13124,4.9121],[97.24267,4.87353],[97.28018,4.8264],[97.25216,4.75803],[97.31861,4.73715]]]}},{"type":"Feature","properties":{"kode":"1171","nama":"Kota Banda Aceh"},"geometry":{"type":"Polygon","coordinates":[[[95.27299,5.54939],[95.32029,5.51658],[95.36079,5.54807],[95.35032,5.59467],[95.37655,5.61129],[95.3498,5.60687],[95.27299,5.54939]]]}},{"type":"Feature","properties":{"kode":"1103","nama":"Aceh Timur"},"geometry":{"type":"Polygon","coordinates":[[[97.35888,4.21426],[97.41413,4.17918],[97.49882,4.15569],[97.51632,4.18193],[97.56249,4.1981],[97.59439,4.24341],[97.65578,4.2233],[97.6879,4.2471],[97.7329,4.24923],[97.78492,4.3565],[97.85651,4.3868],[97.90743,4.39027],[97.93085,4.36044],[98.00227,4.40522],[97.86819,4.47252],[97.91679,4.5314],[97.96829,4.53183],[97.97467,4.55659],[97.99804,4.58927],[97.99637,4.63741],[97.962,4.67194],[97.95967,4.74388],[97.90367,4.89101],[97.86808,4.89256],[97.81065,4.93141],[97.64795,5.0744],[97.65329,5.11325],[97.59053,5.14428],[97.55024,5.21518],[97.48358,5.24312],[97.50091,5.19],[97.45959,5.11226],[97.5085,5.06896],[97.51416,5.03302],[97.47702,4.83934],[97.4379,4.82209],[97.43398,4.78675],[97.39981,4.76868],[97.33746,4.77839],[97.31861,4.73715],[97.3271,4.70306],[97.30579,4.66583],[97.25633,4.65001],[97.31249,4.60462],[97.31721,4.54908],[97.27946,4.51251],[97.34291,4.49986],[97.34554,4.4438],[97.36854,4.3703],[97.35935,4.34947],[97.35888,4.21426]]]}},{"type":"Feature","properties":{"kode":"1172","nama":"Kota Sabang"},"geometry":{"type":"Polygon","coordinates":[[[95.32552,5.77271],[95.37225,5.84832],[95.3245,5.90136],[95.30421,5.84069],[95.26022,5.82227],[95.28627,5.78006],[95.32552,5.77271]]]}},{"type":"Feature","properties":{"kode":"1109","nama":"Simeulue"},"geometry":{"type":"MultiPolygon","coordinates":[[[[96.65077,2.12427],[96.61131,2.10396],[96.64938,2.05784],[96.68866,2.09084],[96.65077,2.12427]]],[[[96.44397,2.33184],[96.49795,2.36272],[96.48679,2.41584],[96.45341,2.47602],[96.40169,2.49103],[96.38478,2.46492],[96.34595,2.546],[96.27051,2.57375],[96.18787,2.65105],[96.1674,2.63661],[96.09929,2.64867],[96.11381,2.71504],[96.09189,2.74861],[96.02649,2.75655],[95.97564,2.81149],[95.90416,2.824],[95.87051,2.84647],[95.90473,2.89484],[95.8723,2.91319],[95.76813,2.89717],[95.7675,2.82625],[95.73487,2.83178],[95.69214,2.77404],[95.72624,2.76054],[95.75515,2.70044],[95.81795,2.64767],[95.86313,2.63796],[95.94221,2.57205],[95.97432,2.58866],[96.08025,2.56668],[96.12621,2.52289],[96.16067,2.51206],[96.22809,2.44211],[96.31778,2.41554],[96.31972,2.3619],[96.34457,2.34143],[96.38689,2.34923],[96.44397,2.33184]]]]}}]}